CTC2_L_00576001-01
1 68907U 24136JH  26070.40851852  .00000000  00000+0  00000-0 0  9993
2 68907  63.4000   0.0000 0000000   0.0000   0.0000  2.00929005    13
CTC2_L_00576001-02
1 68908U 26011WT  26070.40851852  .00000000  00000+0  00000-0 0  9998
2 68908  63.4000   0.0000 0000000   0.0000 180.0000  2.00929005    13
CTC2_L_00576002-01
1 68909U 22939XP  26070.40851852  .00000000  00000+0  00000-0 0  9994
2 68909  63.4000 180.0000 0000000   0.0000   0.0000  2.00929005    14
CTC2_L_00576002-02
1 68910U 24871SU  26070.40851852  .00000000  00000+0  00000-0 0  9993
2 68910  63.4000 180.0000 0000000   0.0000 180.0000  2.00929005    15
